{"type": "FeatureCollection", "features": [ {"type": "Feature", "properties": {"norad_id": 43262, "name": "GAOFEN-1 04", "group": "resource", "lat": -29.96859706908328, "lon": -142.3829579422943, "alt_km": 647.285285388265, "timestamp": "2025-12-10T11:33:53.048962+00:00", "meta": {"OBJECT_NAME": "GAOFEN-1 04", "OBJECT_ID": "2018-031D", "EPOCH": "2025-12-10T04:06:34.692768", "MEAN_MOTION": 14.76440027, "ECCENTRICITY": 0.0001148, "INCLINATION": 98.0806, "RA_OF_ASC_NODE": 42.0053, "ARG_OF_PERICENTER": 55.2665, "MEAN_ANOMALY": 304.8652, "EPHEMERIS_TYPE": 0, "CLASSIFICATION_TYPE": "U", "NORAD_CAT_ID": 43262, "ELEMENT_SET_NO": 999, "REV_AT_EPOCH": 41479, "BSTAR": 0.00015141, "MEAN_MOTION_DOT": 1.001e-05, "MEAN_MOTION_DDOT": 0}, "tle": {"line1": "1 43262U 18031D   25344.17123487  .00001001  00000+0  15141-3 0  9997", "line2": "2 43262  98.0806  42.0053 0001148  55.2665 304.8652 14.76440027414795"}}, "geometry": {"type": "Point", "coordinates": [-142.3829579422943, -29.96859706908328]}}, {"type": "Feature", "properties": {"norad_id": 43437, "name": "SENTINEL-3B", "group": "resource", "lat": 59.040567524335415, "lon": 35.04049453059997, "alt_km": 796.1041046833507, "timestamp": "2025-12-10T11:33:53.048972+00:00", "meta": {"OBJECT_NAME": "SENTINEL-3B", "OBJECT_ID": "2018-039A", "EPOCH": "2025-12-10T04:33:04.965120", "MEAN_MOTION": 14.26741344, "ECCENTRICITY": 0.0001558, "INCLINATION": 98.6268, "RA_OF_ASC_NODE": 49.4113, "ARG_OF_PERICENTER": 105.5141, "MEAN_ANOMALY": 254.6211, "EPHEMERIS_TYPE": 0, "CLASSIFICATION_TYPE": "U", "NORAD_CAT_ID": 43437, "ELEMENT_SET_NO": 999, "REV_AT_EPOCH": 39717, "BSTAR": 0.00011425, "MEAN_MOTION_DOT": 2.33e-06, "MEAN_MOTION_DDOT": 0}, "tle": {"line1": "1 43437U 18039A   25344.18964080  .00000233  00000+0  11425-3 0  9999", "line2": "2 43437  98.6268  49.4113 0001558 105.5141 254.6211 14.26741344397174"}}, "geometry": {"type": "Point", "coordinates": [35.04049453059997, 59.040567524335415]}}, {"type": "Feature", "properties": {"norad_id": 43461, "name": "GAOFEN-5 01", "group": "resource", "lat": 43.29121120975294, "lon": 135.442714184677, "alt_km": 688.9131882775491, "timestamp": "2025-12-10T11:33:53.048982+00:00", "meta": {"OBJECT_NAME": "GAOFEN-5 01", "OBJECT_ID": "2018-043A", "EPOCH": "2025-12-10T04:21:59.596992", "MEAN_MOTION": 14.60405558, "ECCENTRICITY": 0.0001127, "INCLINATION": 98.4322, "RA_OF_ASC_NODE": 307.1045, "ARG_OF_PERICENTER": 350.6104, "MEAN_ANOMALY": 9.5074, "EPHEMERIS_TYPE": 0, "CLASSIFICATION_TYPE": "U", "NORAD_CAT_ID": 43461, "ELEMENT_SET_NO": 999, "REV_AT_EPOCH": 40410, "BSTAR": 0.00017672, "MEAN_MOTION_DOT": 8.07e-06, "MEAN_MOTION_DDOT": 0}, "tle": {"line1": "1 43461U 18043A   25344.18193978  .00000807  00000+0  17672-3 0  9998", "line2": "2 43461  98.4322 307.1045 0001127 350.6104   9.5074 14.60405558404100"}}, "geometry": {"type": "Point", "coordinates": [135.442714184677, 43.29121120975294]}}, {"type": "Feature", "properties": {"norad_id": 43484, "name": "GAOFEN-6", "group": "resource", "lat": 0.2084033050858059, "lon": 48.79580345239206, "alt_km": 639.9609967271181, "timestamp": "2025-12-10T11:33:53.048993+00:00", "meta": {"OBJECT_NAME": "GAOFEN-6", "OBJECT_ID": "2018-048A", "EPOCH": "2025-12-10T05:03:29.621664", "MEAN_MOTION": 14.76558654, "ECCENTRICITY": 0.0013273, "INCLINATION": 97.803, "RA_OF_ASC_NODE": 48.5624, "ARG_OF_PERICENTER": 70.9499, "MEAN_ANOMALY": 289.3148, "EPHEMERIS_TYPE": 0, "CLASSIFICATION_TYPE": "U", "NORAD_CAT_ID": 43484, "ELEMENT_SET_NO": 999, "REV_AT_EPOCH": 40550, "BSTAR": 0.00019164, "MEAN_MOTION_DOT": 1.289e-05, "MEAN_MOTION_DDOT": 0}, "tle": {"line1": "1 43484U 18048A   25344.21075951  .00001289  00000+0  19164-3 0  9995", "line2": "2 43484  97.8030  48.5624 0013273  70.9499 289.3148 14.76558654405505"}}, "geometry": {"type": "Point", "coordinates": [48.79580345239206, 0.2084033050858059]}}, {"type": "Feature", "properties": {"norad_id": 43585, "name": "GAOFEN-11 01", "group": "resource", "lat": -61.37533563457018, "lon": 60.74387111435285, "alt_km": 423.77403361046254, "timestamp": "2025-12-10T11:33:53.049032+00:00", "meta": {"OBJECT_NAME": "GAOFEN-11 01", "OBJECT_ID": "2018-063A", "EPOCH": "2025-12-10T04:04:52.279392", "MEAN_MOTION": 15.4910337, "ECCENTRICITY": 0.0004512, "INCLINATION": 97.156, "RA_OF_ASC_NODE": 47.1257, "ARG_OF_PERICENTER": 325.4229, "MEAN_ANOMALY": 34.6729, "EPHEMERIS_TYPE": 0, "CLASSIFICATION_TYPE": "U", "NORAD_CAT_ID": 43585, "ELEMENT_SET_NO": 999, "REV_AT_EPOCH": 41102, "BSTAR": 0.00038574, "MEAN_MOTION_DOT": 0.0002089, "MEAN_MOTION_DDOT": 0}, "tle": {"line1": "1 43585U 18063A   25344.17004953  .00020890  00000+0  38574-3 0  9998", "line2": "2 43585  97.1560  47.1257 0004512 325.4229  34.6729 15.49103370411022"}}, "geometry": {"type": "Point", "coordinates": [60.74387111435285, -61.37533563457018]}}, {"type": "Feature", "properties": {"norad_id": 43613, "name": "ICESAT-2", "group": "resource", "lat": -23.95581906829942, "lon": 59.23635074911799, "alt_km": 485.5261228336658, "timestamp": "2025-12-10T11:33:53.049054+00:00", "meta": {"OBJECT_NAME": "ICESAT-2", "OBJECT_ID": "2018-070A", "EPOCH": "2025-12-10T02:49:05.526048", "MEAN_MOTION": 15.28288861, "ECCENTRICITY": 0.0002411, "INCLINATION": 92.0043, "RA_OF_ASC_NODE": 240.0296, "ARG_OF_PERICENTER": 155.5791, "MEAN_ANOMALY": 204.5573, "EPHEMERIS_TYPE": 0, "CLASSIFICATION_TYPE": "U", "NORAD_CAT_ID": 43613, "ELEMENT_SET_NO": 999, "REV_AT_EPOCH": 40358, "BSTAR": 0.00064769, "MEAN_MOTION_DOT": 0.00017858, "MEAN_MOTION_DDOT": 0}, "tle": {"line1": "1 43613U 18070A   25344.11742507  .00017858  00000+0  64769-3 0  9991", "line2": "2 43613  92.0043 240.0296 0002411 155.5791 204.5573 15.28288861403586"}}, "geometry": {"type": "Point", "coordinates": [59.23635074911799, -23.95581906829942]}}, {"type": "Feature", "properties": {"norad_id": 43719, "name": "HYSIS", "group": "resource", "lat": 18.572299281171407, "lon": 44.758623771215156, "alt_km": 633.121632496609, "timestamp": "2025-12-10T11:33:53.049066+00:00", "meta": {"OBJECT_NAME": "HYSIS", "OBJECT_ID": "2018-096A", "EPOCH": "2025-12-10T04:59:01.454208", "MEAN_MOTION": 14.78633502, "ECCENTRICITY": 0.0001475, "INCLINATION": 98.0096, "RA_OF_ASC_NODE": 47.1975, "ARG_OF_PERICENTER": 56.2896, "MEAN_ANOMALY": 303.8455, "EPHEMERIS_TYPE": 0, "CLASSIFICATION_TYPE": "U", "NORAD_CAT_ID": 43719, "ELEMENT_SET_NO": 999, "REV_AT_EPOCH": 37949, "BSTAR": 0.00026742, "MEAN_MOTION_DOT": 1.906e-05, "MEAN_MOTION_DDOT": 0}, "tle": {"line1": "1 43719U 18096A   25344.20765572  .00001906  00000+0  26742-3 0  9999", "line2": "2 43719  98.0096  47.1975 0001475  56.2896 303.8455 14.78633502379493"}}, "geometry": {"type": "Point", "coordinates": [44.758623771215156, 18.572299281171407]}}, {"type": "Feature", "properties": {"norad_id": 43783, "name": "KAZSTSAT", "group": "resource", "lat": 82.02079086126292, "lon": -49.34472176421514, "alt_km": 562.7117836061952, "timestamp": "2025-12-10T11:33:53.049081+00:00", "meta": {"OBJECT_NAME": "KAZSTSAT", "OBJECT_ID": "2018-099AB", "EPOCH": "2025-12-10T01:34:02.667360", "MEAN_MOTION": 14.99340105, "ECCENTRICITY": 0.0006029, "INCLINATION": 97.4557, "RA_OF_ASC_NODE": 19.3651, "ARG_OF_PERICENTER": 341.3852, "MEAN_ANOMALY": 18.715, "EPHEMERIS_TYPE": 0, "CLASSIFICATION_TYPE": "U", "NORAD_CAT_ID": 43783, "ELEMENT_SET_NO": 999, "REV_AT_EPOCH": 38296, "BSTAR": 0.00018808, "MEAN_MOTION_DOT": 2.244e-05, "MEAN_MOTION_DDOT": 0}, "tle": {"line1": "1 43783U 18099AB  25344.06530865  .00002244  00000+0  18808-3 0  9992", "line2": "2 43783  97.4557  19.3651 0006029 341.3852  18.7150 14.99340105382968"}}, "geometry": {"type": "Point", "coordinates": [-49.34472176421514, 82.02079086126292]}}, {"type": "Feature", "properties": {"norad_id": 43831, "name": "SAUDISAT 5A", "group": "resource", "lat": -72.08089972999946, "lon": 68.19263990299456, "alt_km": 503.7210250366197, "timestamp": "2025-12-10T11:33:53.049093+00:00", "meta": {"OBJECT_NAME": "SAUDISAT 5A", "OBJECT_ID": "2018-102A", "EPOCH": "2025-12-10T04:00:59.560992", "MEAN_MOTION": 15.25605008, "ECCENTRICITY": 0.0011819, "INCLINATION": 97.3352, "RA_OF_ASC_NODE": 44.4077, "ARG_OF_PERICENTER": 84.0748, "MEAN_ANOMALY": 276.1837, "EPHEMERIS_TYPE": 0, "CLASSIFICATION_TYPE": "U", "NORAD_CAT_ID": 43831, "ELEMENT_SET_NO": 999, "REV_AT_EPOCH": 38683, "BSTAR": 0.00034221, "MEAN_MOTION_DOT": 8.643e-05, "MEAN_MOTION_DDOT": 0}, "tle": {"line1": "1 43831U 18102A   25344.16735603  .00008643  00000+0  34221-3 0  9995", "line2": "2 43831  97.3352  44.4077 0011819  84.0748 276.1837 15.25605008386831"}}, "geometry": {"type": "Point", "coordinates": [68.19263990299456, -72.08089972999946]}}, {"type": "Feature", "properties": {"norad_id": 43833, "name": "SAUDISAT 5B", "group": "resource", "lat": -24.17808783389197, "lon": 50.770506377333604, "alt_km": 496.40090894210516, "timestamp": "2025-12-10T11:33:53.049105+00:00", "meta": {"OBJECT_NAME": "SAUDISAT 5B", "OBJECT_ID": "2018-102C", "EPOCH": "2025-12-10T05:22:34.546080", "MEAN_MOTION": 15.2595925, "ECCENTRICITY": 0.0012516, "INCLINATION": 97.3446, "RA_OF_ASC_NODE": 47.1974, "ARG_OF_PERICENTER": 86.2756, "MEAN_ANOMALY": 273.9914, "EPHEMERIS_TYPE": 0, "CLASSIFICATION_TYPE": "U", "NORAD_CAT_ID": 43833, "ELEMENT_SET_NO": 999, "REV_AT_EPOCH": 38695, "BSTAR": 0.00031938, "MEAN_MOTION_DOT": 8.149e-05, "MEAN_MOTION_DDOT": 0}, "tle": {"line1": "1 43833U 18102C   25344.22401095  .00008149  00000+0  31938-3 0  9992", "line2": "2 43833  97.3446  47.1974 0012516  86.2756 273.9914 15.25959250386956"}}, "geometry": {"type": "Point", "coordinates": [50.770506377333604, -24.17808783389197]}}]}